0 COSMOS 2251 DEB
1 34385U 93036QA  13281.70816657  .00031343  00000-0  39851-2 0   510
2 34385 074.0234 016.4835 0051881 158.2054 323.1723 14.80518792246198
0 COSMOS 2251 DEB
1 34385U 93036QA  13282.03525753  .00057135  00000-0  72289-2 0   521
2 34385 074.0232 015.8379 0051638 157.5571 266.4621 14.80560718246245
0 COSMOS 2251 DEB
1 34385U 93036QA  13282.72224270  .00042752  00000-0  54116-2 0   536
2 34385 074.0237 014.4816 0051540 155.9947 328.2336 14.80637473246346
0 COSMOS 2251 DEB
1 34385U 93036QA  13283.24529021  .00049785  00000-0  62897-2 0   545
2 34385 074.0236 013.4488 0051332 154.9317 236.1676 14.80679917246420
0 COSMOS 2251 DEB
1 34385U 93036QA  13285.70044317  .00035008  00000-0  44174-2 0   561
2 34385 074.0236 008.6042 0050768 149.2430 004.2457 14.80849640246789
0 COSMOS 2251 DEB
1 34385U 93036QA  13287.97982197  .00060738  00000-0  76083-2 0   572
2 34385 074.0244 004.1045 0049902 144.4640 276.1135 14.81016866247129
0 COSMOS 2251 DEB
1 34385U 93036QA  13289.34154277  .00047668  00000-0  59659-2 0   583
2 34385 074.0243 001.4159 0049528 141.4254 336.7320 14.81148957247324
0 COSMOS 2251 DEB
1 34385U 93036QA  13290.35654498  .00048660  00000-0  60797-2 0   595
2 34385 074.0247 359.4108 0049341 139.2000 348.9728 14.81220063247477
0 COSMOS 2251 DEB
1 34385U 93036QA  13291.29130500  .00039018  00000-0  48745-2 0   600
2 34385 074.0237 357.5646 0049058 136.9833 293.7637 14.81297571247615
0 COSMOS 2251 DEB
1 34385U 93036QA  13293.24800064  .00036831  00000-0  45906-2 0   613
2 34385 074.0228 353.6989 0048362 132.5043 288.8046 14.81433027247903
0 COSMOS 2251 DEB
1 34385U 93036QA  13295.13275194  .00040192  00000-0  49926-2 0   625
2 34385 074.0230 349.9744 0048361 128.0571 261.1817 14.81550551248181
